[{"OBJECT_NAME":"ONEWEB-0092","OBJECT_ID":"2020-020P","EPOCH":"2025-09-22T23:31:11.251776","MEAN_MOTION":13.11418617,"ECCENTRICITY":0.00019091,"INCLINATION":87.8791,"RA_OF_ASC_NODE":74.2881,"ARG_OF_PERICENTER":89.7549,"MEAN_ANOMALY":270.3798,"EPHEMERIS_TYPE":0,"CLASSIFICATION_TYPE":"U","NORAD_CAT_ID":45437,"ELEMENT_SET_NO":999,"REV_AT_EPOCH":26776,"BSTAR":0.00010018862,"MEAN_MOTION_DOT":4.8e-7,"MEAN_MOTION_DDOT":0},{"OBJECT_NAME":"ONEWEB-0085","OBJECT_ID":"2020-020Q","EPOCH":"2025-09-23T04:03:25.152768","MEAN_MOTION":13.11416392,"ECCENTRICITY":0.00016459,"INCLINATION":87.8781,"RA_OF_ASC_NODE":74.2637,"ARG_OF_PERICENTER":90.827,"MEAN_ANOMALY":269.3047,"EPHEMERIS_TYPE":0,"CLASSIFICATION_TYPE":"U","NORAD_CAT_ID":45438,"ELEMENT_SET_NO":999,"REV_AT_EPOCH":26767,"BSTAR":0.00035856113,"MEAN_MOTION_DOT":1.4e-6,"MEAN_MOTION_DDOT":0},{"OBJECT_NAME":"ONEWEB-0096","OBJECT_ID":"2020-020R","EPOCH":"2025-09-23T04:05:51.002016","MEAN_MOTION":13.11413995,"ECCENTRICITY":0.00014939,"INCLINATION":87.8798,"RA_OF_ASC_NODE":74.2341,"ARG_OF_PERICENTER":86.3629,"MEAN_ANOMALY":273.7669,"EPHEMERIS_TYPE":0,"CLASSIFICATION_TYPE":"U","NORAD_CAT_ID":45439,"ELEMENT_SET_NO":999,"REV_AT_EPOCH":26766,"BSTAR":6.1963073e-5,"MEAN_MOTION_DOT":3.5e-7,"MEAN_MOTION_DDOT":0},{"OBJECT_NAME":"ONEWEB-0037","OBJECT_ID":"2020-020S","EPOCH":"2025-09-23T05:27:39.307392","MEAN_MOTION":13.11417334,"ECCENTRICITY":0.00017344,"INCLINATION":87.8803,"RA_OF_ASC_NODE":74.1883,"ARG_OF_PERICENTER":89.3548,"MEAN_ANOMALY":270.7779,"EPHEMERIS_TYPE":0,"CLASSIFICATION_TYPE":"U","NORAD_CAT_ID":45440,"ELEMENT_SET_NO":999,"REV_AT_EPOCH":26770,"BSTAR":0.0017454618,"MEAN_MOTION_DOT":6.31e-6,"MEAN_MOTION_DDOT":0},{"OBJECT_NAME":"ONEWEB-0042","OBJECT_ID":"2020-020T","EPOCH":"2025-09-23T00:11:15.953856","MEAN_MOTION":13.11414319,"ECCENTRICITY":0.00017151,"INCLINATION":87.8787,"RA_OF_ASC_NODE":74.2712,"ARG_OF_PERICENTER":87.2084,"MEAN_ANOMALY":272.924,"EPHEMERIS_TYPE":0,"CLASSIFICATION_TYPE":"U","NORAD_CAT_ID":45441,"ELEMENT_SET_NO":999,"REV_AT_EPOCH":26764,"BSTAR":0.0011783814,"MEAN_MOTION_DOT":4.3e-6,"MEAN_MOTION_DDOT":0},{"OBJECT_NAME":"ONEWEB-0098","OBJECT_ID":"2020-020U","EPOCH":"2025-09-23T05:34:58.476864","MEAN_MOTION":13.11416044,"ECCENTRICITY":0.00015968,"INCLINATION":87.8791,"RA_OF_ASC_NODE":74.2371,"ARG_OF_PERICENTER":93.0277,"MEAN_ANOMALY":267.1033,"EPHEMERIS_TYPE":0,"CLASSIFICATION_TYPE":"U","NORAD_CAT_ID":45442,"ELEMENT_SET_NO":999,"REV_AT_EPOCH":26765,"BSTAR":0.0014461985,"MEAN_MOTION_DOT":5.25e-6,"MEAN_MOTION_DDOT":0},{"OBJECT_NAME":"ONEWEB-0055","OBJECT_ID":"2020-020V","EPOCH":"2025-09-23T05:10:32.426976","MEAN_MOTION":13.11420128,"ECCENTRICITY":0.00015939,"INCLINATION":87.8793,"RA_OF_ASC_NODE":74.2416,"ARG_OF_PERICENTER":92.5632,"MEAN_ANOMALY":267.5679,"EPHEMERIS_TYPE":0,"CLASSIFICATION_TYPE":"U","NORAD_CAT_ID":45443,"ELEMENT_SET_NO":999,"REV_AT_EPOCH":26762,"BSTAR":0.00076188793,"MEAN_MOTION_DOT":2.83e-6,"MEAN_MOTION_DDOT":0},{"OBJECT_NAME":"ONEWEB-0093","OBJECT_ID":"2020-020W","EPOCH":"2025-09-23T00:55:36.005952","MEAN_MOTION":13.11417217,"ECCENTRICITY":0.00016803,"INCLINATION":87.8793,"RA_OF_ASC_NODE":74.2622,"ARG_OF_PERICENTER":75.7243,"MEAN_ANOMALY":284.4072,"EPHEMERIS_TYPE":0,"CLASSIFICATION_TYPE":"U","NORAD_CAT_ID":45444,"ELEMENT_SET_NO":999,"REV_AT_EPOCH":26766,"BSTAR":-0.001668791,"MEAN_MOTION_DOT":-5.79e-6,"MEAN_MOTION_DDOT":0},{"OBJECT_NAME":"ONEWEB-0029","OBJECT_ID":"2020-020X","EPOCH":"2025-09-22T23:28:43.736736","MEAN_MOTION":13.11420241,"ECCENTRICITY":0.00015385,"INCLINATION":87.8794,"RA_OF_ASC_NODE":74.2871,"ARG_OF_PERICENTER":86.4065,"MEAN_ANOMALY":273.7238,"EPHEMERIS_TYPE":0,"CLASSIFICATION_TYPE":"U","NORAD_CAT_ID":45445,"ELEMENT_SET_NO":999,"REV_AT_EPOCH":26763,"BSTAR":2.327018e-6,"MEAN_MOTION_DOT":1.4e-7,"MEAN_MOTION_DDOT":0},{"OBJECT_NAME":"ONEWEB-0068","OBJECT_ID":"2020-020Y","EPOCH":"2025-09-22T23:05:19.694400","MEAN_MOTION":13.11415297,"ECCENTRICITY":0.00015475,"INCLINATION":87.8792,"RA_OF_ASC_NODE":74.279,"ARG_OF_PERICENTER":85.3995,"MEAN_ANOMALY":274.731,"EPHEMERIS_TYPE":0,"CLASSIFICATION_TYPE":"U","NORAD_CAT_ID":45446,"ELEMENT_SET_NO":999,"REV_AT_EPOCH":26757,"BSTAR":-0.0014609917,"MEAN_MOTION_DOT":-5.05e-6,"MEAN_MOTION_DDOT":0},{"OBJECT_NAME":"ONEWEB-0046","OBJECT_ID":"2020-020Z","EPOCH":"2025-09-23T00:43:11.586144","MEAN_MOTION":13.11414831,"ECCENTRICITY":0.00017941,"INCLINATION":87.8788,"RA_OF_ASC_NODE":74.2748,"ARG_OF_PERICENTER":83.5821,"MEAN_ANOMALY":276.5511,"EPHEMERIS_TYPE":0,"CLASSIFICATION_TYPE":"U","NORAD_CAT_ID":45447,"ELEMENT_SET_NO":999,"REV_AT_EPOCH":26759,"BSTAR":-0.0012664014,"MEAN_MOTION_DOT":-4.36e-6,"MEAN_MOTION_DDOT":0},{"OBJECT_NAME":"ONEWEB-0063","OBJECT_ID":"2020-020AA","EPOCH":"2025-09-22T23:34:49.645056","MEAN_MOTION":13.11419569,"ECCENTRICITY":0.00018621,"INCLINATION":87.8792,"RA_OF_ASC_NODE":74.2825,"ARG_OF_PERICENTER":89.3716,"MEAN_ANOMALY":270.7626,"EPHEMERIS_TYPE":0,"CLASSIFICATION_TYPE":"U","NORAD_CAT_ID":45448,"ELEMENT_SET_NO":999,"REV_AT_EPOCH":26767,"BSTAR":9.1125798e-5,"MEAN_MOTION_DOT":4.5e-7,"MEAN_MOTION_DDOT":0},{"OBJECT_NAME":"ONEWEB-0019","OBJECT_ID":"2020-020AB","EPOCH":"2025-09-23T00:46:51.687552","MEAN_MOTION":13.11416269,"ECCENTRICITY":0.00015682,"INCLINATION":87.8784,"RA_OF_ASC_NODE":74.2883,"ARG_OF_PERICENTER":92.0738,"MEAN_ANOMALY":268.0569,"EPHEMERIS_TYPE":0,"CLASSIFICATION_TYPE":"U","NORAD_CAT_ID":45449,"ELEMENT_SET_NO":999,"REV_AT_EPOCH":26752,"BSTAR":-0.0015028052,"MEAN_MOTION_DOT":-5.2e-6,"MEAN_MOTION_DDOT":0},{"OBJECT_NAME":"ONEWEB-0094","OBJECT_ID":"2020-020AC","EPOCH":"2025-09-22T23:36:19.114848","MEAN_MOTION":13.17649292,"ECCENTRICITY":0.00016847,"INCLINATION":87.9065,"RA_OF_ASC_NODE":58.9766,"ARG_OF_PERICENTER":92.0396,"MEAN_ANOMALY":268.0928,"EPHEMERIS_TYPE":0,"CLASSIFICATION_TYPE":"U","NORAD_CAT_ID":45450,"ELEMENT_SET_NO":999,"REV_AT_EPOCH":27112,"BSTAR":-0.00016889353,"MEAN_MOTION_DOT":-5.3e-7,"MEAN_MOTION_DDOT":0},{"OBJECT_NAME":"ONEWEB-0087","OBJECT_ID":"2020-020AD","EPOCH":"2025-09-23T05:18:54.587232","MEAN_MOTION":13.11420358,"ECCENTRICITY":0.00014052,"INCLINATION":87.88,"RA_OF_ASC_NODE":74.1849,"ARG_OF_PERICENTER":81.4906,"MEAN_ANOMALY":278.6381,"EPHEMERIS_TYPE":0,"CLASSIFICATION_TYPE":"U","NORAD_CAT_ID":45451,"ELEMENT_SET_NO":999,"REV_AT_EPOCH":26759,"BSTAR":0.0013137953,"MEAN_MOTION_DOT":4.78e-6,"MEAN_MOTION_DDOT":0},{"OBJECT_NAME":"ONEWEB-0082","OBJECT_ID":"2020-020AE","EPOCH":"2025-09-23T05:14:13.232544","MEAN_MOTION":13.11417499,"ECCENTRICITY":0.00014565,"INCLINATION":87.88,"RA_OF_ASC_NODE":74.211,"ARG_OF_PERICENTER":89.2368,"MEAN_ANOMALY":270.8927,"EPHEMERIS_TYPE":0,"CLASSIFICATION_TYPE":"U","NORAD_CAT_ID":45452,"ELEMENT_SET_NO":999,"REV_AT_EPOCH":26768,"BSTAR":0.00084568381,"MEAN_MOTION_DOT":3.12e-6,"MEAN_MOTION_DDOT":0},{"OBJECT_NAME":"ONEWEB-0050","OBJECT_ID":"2020-020AF","EPOCH":"2025-09-22T17:43:02.609760","MEAN_MOTION":14.88812352,"ECCENTRICITY":0.00022669,"INCLINATION":88.3212,"RA_OF_ASC_NODE":271.0487,"ARG_OF_PERICENTER":140.0961,"MEAN_ANOMALY":220.0434,"EPHEMERIS_TYPE":0,"CLASSIFICATION_TYPE":"U","NORAD_CAT_ID":45453,"ELEMENT_SET_NO":999,"REV_AT_EPOCH":30056,"BSTAR":0.0056758712,"MEAN_MOTION_DOT":0.00053496,"MEAN_MOTION_DDOT":0}]
