ONEWEB-0092             
1 45437U 20020P   25265.97999134  .00000048  00000+0  10019-3 0  9993
2 45437  87.8791  74.2881 0001909  89.7549 270.3798 13.11418617267763
ONEWEB-0085             
1 45438U 20020Q   25266.16904112  .00000140  00000+0  35856-3 0  9997
2 45438  87.8781  74.2637 0001645  90.8270 269.3047 13.11416392267676
ONEWEB-0096             
1 45439U 20020R   25266.17072919  .00000035  00000+0  61963-4 0  9992
2 45439  87.8798  74.2341 0001493  86.3629 273.7669 13.11413995267660
ONEWEB-0037             
1 45440U 20020S   25266.22753828  .00000631  00000+0  17455-2 0  9992
2 45440  87.8803  74.1883 0001734  89.3548 270.7779 13.11417334267705
ONEWEB-0042             
1 45441U 20020T   25266.00782354  .00000430  00000+0  11784-2 0  9991
2 45441  87.8787  74.2712 0001715  87.2084 272.9240 13.11414319267640
ONEWEB-0098             
1 45442U 20020U   25266.23262126  .00000525  00000+0  14462-2 0  9998
2 45442  87.8791  74.2371 0001596  93.0277 267.1033 13.11416044267657
ONEWEB-0055             
1 45443U 20020V   25266.21565309  .00000283  00000+0  76189-3 0  9992
2 45443  87.8793  74.2416 0001593  92.5632 267.5679 13.11420128267621
ONEWEB-0093             
1 45444U 20020W   25266.03861118 -.00000579  00000+0 -16688-2 0  9997
2 45444  87.8793  74.2622 0001680  75.7243 284.4072 13.11417217267663
ONEWEB-0029             
1 45445U 20020X   25265.97828399  .00000014  00000+0  23270-5 0  9994
2 45445  87.8794  74.2871 0001538  86.4065 273.7238 13.11420241267637
ONEWEB-0068             
1 45446U 20020Y   25265.96203350 -.00000505  00000+0 -14610-2 0  9990
2 45446  87.8792  74.2790 0001547  85.3995 274.7310 13.11415297267576
ONEWEB-0046             
1 45447U 20020Z   25266.02999521 -.00000436  00000+0 -12664-2 0  9991
2 45447  87.8788  74.2748 0001794  83.5821 276.5511 13.11414831267595
ONEWEB-0063             
1 45448U 20020AA  25265.98251904  .00000045  00000+0  91126-4 0  9998
2 45448  87.8792  74.2825 0001862  89.3716 270.7626 13.11419569267675
ONEWEB-0019             
1 45449U 20020AB  25266.03254268 -.00000520  00000+0 -15028-2 0  9997
2 45449  87.8784  74.2883 0001568  92.0738 268.0569 13.11416269267523
ONEWEB-0094             
1 45450U 20020AC  25265.98355457 -.00000053  00000+0 -16889-3 0  9992
2 45450  87.9065  58.9766 0001684  92.0396 268.0928 13.17649292271126
ONEWEB-0087             
1 45451U 20020AD  25266.22146513  .00000478  00000+0  13138-2 0  9994
2 45451  87.8800  74.1849 0001405  81.4906 278.6381 13.11420358267595
ONEWEB-0082             
1 45452U 20020AE  25266.21820871  .00000312  00000+0  84568-3 0  9993
2 45452  87.8800  74.2110 0001456  89.2368 270.8927 13.11417499267684
ONEWEB-0050             
1 45453U 20020AF  25265.73822465  .00053496  00000+0  56759-2 0  9992
2 45453  88.3212 271.0487 0002266 140.0961 220.0434 14.88812352300564
